SL-3 R/B                
1 19046U 88032B   18121.50378679 -.00000001  00000-0  44225-5 0  9993
2 19046  97.4867 163.4215 0035782 335.9444  24.0108 15.02424541620430
SL-16 R/B               
1 19120U 88039B   18120.76577299 -.00000154  00000-0 -50443-4 0  9997
2 19120  71.0167  13.8904 0020020  58.2881 302.0192 14.19182522551449
COSMOS 1953             
1 19210U 88050A   18120.94714852 -.00000100  00000-0 -89419-5 0  9995
2 19210  82.5160  85.2346 0011512 253.6133 106.3828 15.05545824625659
SL-8 R/B                
1 19257U 88053B   18121.15540681  .00000066  00000-0  30724-4 0  9993
2 19257  74.0498 351.9721 0020311 166.6721 322.8796 14.37396937564455
COSMOS 1975             
1 19573U 88093A   18121.28924288  .00000138  00000-0  77797-5 0  9993
2 19573  82.5226  37.6522 0012767 299.4332  60.5619 15.04451247607634
SL-14 R/B               
1 19574U 88093B   18121.48992882  .00000074  00000-0  60076-5 0  9992
2 19574  82.5346 207.4624 0022600 143.9604 287.7106 14.83261864596631
SL-16 R/B               
1 19650U 88102B   18121.44807188  .00000248  00000-0  15037-3 0  9996
2 19650  71.0004  65.8749 0012473  53.5031 306.7239 14.15770250521042
INTERCOSMOS 24          
1 20261U 89080A   18121.51362089  .00000087  00000-0  16000-4 0  9999
2 20261  82.5977 163.7731 1204675  82.6580 290.9518 12.55984726305925
SL-14 R/B               
1 20262U 89080C   18121.22632590  .00000073  00000-0  21286-4 0  9992
2 20262  82.5978 212.3847 1235849 251.4800  94.8338 12.48890992301418
DELTA 1 R/B             
1 20323U 89089B   18121.14951565  .00000061  00000-0  24784-4 0  9999
2 20323  97.1183  22.1687 0072268 159.5619 200.8496 14.48253092500741
DELTA 2 R/B(1)          
1 20453U 90008B   18121.15992765  .00001232  00000-0  71573-4 0  9993
2 20453  35.6253 160.7417 0286613 294.8309  62.2853 14.84121040495455
COSMOS 2058             
1 20465U 90010A   18121.05530398  .00000255  00000-0  19469-4 0  9998
2 20465  82.4867 302.1859 0014233 307.7789  52.2144 14.97708696532911
SL-14 R/B               
1 20466U 90010B   18120.85791044  .00000068  00000-0  56645-5 0  9993
2 20466  82.5035  75.3662 0021054  19.3159 340.8848 14.81321498524526
SL-14 R/B               
1 20511U 90018B   18120.87708313  .00000066  00000-0  56528-5 0  9999
2 20511  82.5258  18.2610 0018274 147.0991 259.5522 14.79978733497954
HST                     
1 20580U 90037B   18121.30033701  .00000426  00000-0  15133-4 0  9993
2 20580  28.4699  65.0508 0002648   1.2089 130.1656 15.09026899338385
SL-16 R/B               
1 20625U 90046B   18121.19670188  .00000170  00000-0  11327-3 0  9992
2 20625  70.9989 201.6940 0014843 336.4495  23.5946 14.14625974442805
COSMOS 2084             
1 20663U 90055A   18120.84078565  .00000064  00000-0  23591-4 0  9995
2 20663  62.7926 247.7260 0126920 121.3450 240.0139 14.91820331507187
SL-6 R/B(2)             
1 20666U 90055D   18121.30205634 -.00000055  00000-0  13472-4 0  9997
2 20666  62.7839 164.2393 0102327 141.8946 218.9443 14.92120198508644
SL-8 R/B                
1 20775U 90078B   18120.46748477  .00001483  00000-0  70203-4 0  9996
2 20775  82.9268 147.8400 0584678  83.8344 282.9096 14.32002121394165
SL-8 R/B                
1 21088U 91006B   18121.54242444  .00000134  00000-0  11950-3 0  9994
2 21088  82.9400 143.5824 0023384 145.9523   8.1598 13.77081332369419
OKEAN-3                 
1 21397U 91039A   18120.62535558  .00000191  00000-0  15968-4 0  9999
2 21397  82.5240 196.8404 0016361 253.9108 106.0311 14.92656328436070
COSMOS 2151             
1 21422U 91042A   18121.51733339  .00000109  00000-0  82296-5 0  9996
2 21422  82.4978 303.4926 0013074 316.1687  43.8494 14.91945209455960
SL-14 R/B               
1 21423U 91042B   18121.22395123  .00000075  00000-0  69570-5 0  9992
2 21423  82.4969  24.2129 0016165 290.7031  69.2449 14.79730390449614
ERS-1                   
1 21574U 91050A   18120.91803033  .00000050  00000-0  30967-4 0  9997
2 21574  98.5006  68.7115 0034249  86.6265 273.8839 14.37643416403244
ARIANE 40 R/B           
1 21610U 91050F   18121.15733733  .00000011  00000-0  17250-4 0  9991
2 21610  98.5590 183.8905 0004363  79.7852 305.9653 14.40834699405903
INTERCOSMOS 25          
1 21819U 91086A   18120.70613543  .00000489  00000-0  91268-4 0  9997
2 21819  82.5934 232.4388 1518929 131.1932 243.0516 12.04886799150493
SL-14 R/B               
1 21820U 91086B   18120.92694014  .00000063  00000-0  11230-4 0  9994
2 21820  82.5574 291.0405 1576320 331.2106  21.0101 11.93377335144687
SL-8 R/B                
1 21876U 92008B   18120.91479571  .00000012  00000-0 -31349-5 0  9997
2 21876  82.9279 241.0488 0033922 225.5908 274.4153 13.75619525314839
SL-8 R/B                
1 21938U 92020B   18121.52378916 -.00000081  00000-0 -99729-4 0  9991
2 21938  82.9269 124.1369 0029875  26.6602 129.6798 13.75263510307049
SL-16 R/B               
1 22220U 92076B   18121.42248664 -.00000272  00000-0 -11256-3 0  9992
2 22220  70.9982 109.3692 0011807 158.0448 354.7624 14.16430445315835
SL-16 R/B               
1 22285U 92093B   18120.85283615  .00000073  00000-0  62429-4 0  9999
2 22285  71.0219 265.8902 0004678 335.5555  24.5346 14.15025123307197
COSMOS 2228             
1 22286U 92094A   18120.95742891  .00000144  00000-0  12940-4 0  9990
2 22286  82.5207  74.4022 0022099 142.9729 217.3019 14.87929278369740
SL-16 R/B               
1 22566U 93016B   18121.47489734 -.00000310  00000-0 -13538-3 0  9998
2 22566  71.0039 118.8115 0010075 356.5603   3.5449 14.14949910296294
COSMOS 2242             
1 22626U 93024A   18120.92924713  .00000162  00000-0  14932-4 0  9997
2 22626  82.5198 102.2438 0019943 142.2219 218.0403 14.87793280353097
SL-16 R/B               
1 22803U 93059B   18120.94152783 -.00000002  00000-0  22780-4 0  9998
2 22803  70.9897 299.8490 0019489 262.6305  97.2604 14.16792204273032
ARIANE 40 R/B           
1 22830U 93061H   18121.10949921 -.00000033  00000-0  48593-5 0  9993
2 22830  98.8616 148.4364 0012045  81.2505 279.0041 14.31414651283723
COSMOS 2278             
1 23087U 94023A   18121.24567608 -.00000236  00000-0 -10006-3 0  9992
2 23087  71.0556  54.2152 0006224  87.5950 272.5885 14.13769193239457
SL-16 R/B               
1 23088U 94023B   18120.61687573  .00000039  00000-0  44809-4 0  9995
2 23088  71.0011 335.8161 0004729 312.1427  47.9293 14.14670623240163
SL-16 R/B               
1 23343U 94074B   18120.73684992 -.00000026  00000-0  38351-5 0  9993
2 23343  98.1097 165.2093 0008007 127.8457   5.0459 14.76729340263698
SL-16 R/B               
1 23405U 94077B   18120.85378270  .00000005  00000-0  26961-4 0  9996
2 23405  70.9833 267.5007 0004021 232.2178 127.8581 14.15204544210202
ERS-2                   
1 23560U 95021A   18120.67653261  .00000919  00000-0  44555-4 0  9997
2 23560  98.5410 160.9016 0002520 323.9815  36.1247 15.21674804223624
ARIANE 40+ R/B          
1 23561U 95021B   18120.67638692  .00000019  00000-0  21542-4 0  9991
2 23561  98.7940 134.2564 0007736  47.4849  88.0007 14.37868957206874
SL-16 R/B               
1 23705U 95058B   18121.33115450 -.00000081  00000-0 -17376-4 0  9998
2 23705  71.0206  81.5433 0012489 183.7947 176.3083 14.15115012162190
SL-16 R/B               
1 24298U 96051B   18121.40901092 -.00000245  00000-0 -10621-3 0  9990
2 24298  70.8348 111.3848 0013379  67.2425 293.0107 14.12445423116765
ORBVIEW 2 (SEASTAR)     
1 24883U 97037A   18120.93138988  .00000016  00000-0  21750-4 0  9998
2 24883  98.5563 230.6887 0001432 221.8202 138.2874 14.33449327 97430
SL-16 R/B               
1 25400U 98043G   18120.84504800 -.00000019  00000-0  99699-5 0  9994
2 25400  98.5297  64.5986 0011096  87.3634 272.8816 14.25427798 30320
SL-16 R/B               
1 25407U 98045B   18120.88268851  .00000153  00000-0  10192-3 0  9997
2 25407  71.0090  93.7983 0005603  80.8039 279.3717 14.15775176 21157
ISS (ZARYA)             
1 25544U 98067A   18121.53596602  .00001652  00000-0  32135-4 0  9991
2 25544  51.6418 251.2696 0003217  38.3259  68.0351 15.54186369111263
SL-8 R/B                
1 25723U 99022C   18120.89760259  .00006768  00000-0  90774-4 0  9997
2 25723  48.4150 267.0727 0007609 136.2158 223.9393 15.59092035 55675
CZ-4B R/B               
1 25732U 99025C   18120.52146884 -.00000016  00000-0  14568-4 0  9990
2 25732  98.9949 131.1960 0036304 268.3736 243.5210 14.17648157981594
OKEAN-O                 
1 25860U 99039A   18121.44815358  .00000022  00000-0  10854-4 0  9998
2 25860  98.2150 116.2317 0001304 113.0774 247.0573 14.76544112 10790
SL-16 R/B               
1 25861U 99039B   18121.41777369  .00000008  00000-0  84687-5 0  9995
2 25861  98.1487 100.6797 0016642 134.3028  17.4922 14.78474599 12793
TERRA                   
1 25994U 99068A   18121.76349155 -.00000223  00000-0 -39520-4 0  9996
2 25994  98.2092 197.3010 0001227 103.4097 256.7240 14.57096024977061
ENVISAT                 
1 27386U 02009A   18121.56652211 -.00000014  00000-0  90406-5 0  9998
2 27386  98.1890 157.8126 0001398  89.3335  84.6931 14.37920815846824
IDEFIX & ARIANE 42P R/B 
1 27422U 02021B   18120.91989346 -.00000029  00000-0  45874-5 0  9998
2 27422  98.2539 108.9700 0012736  20.8091 339.3608 14.29261037833954
AQUA                    
1 27424U 02022A   18121.22880892  .00000067  00000-0  24929-4 0  9990
2 27424  98.1997  63.1496 0001241 161.7999 174.8944 14.57129789850589
CZ-4B R/B               
1 27432U 02024C   18121.45801301 -.00000027  00000-0  99040-5 0  9998
2 27432  99.0307 102.5512 0049897 211.5562 301.3152 14.14062886823775
MIDORI II (ADEOS-II)    
1 27597U 02056A   18120.89257973  .00000027  00000-0  28329-4 0  9992
2 27597  98.4169  82.7463 0002159  98.8572 261.2853 14.27346064800748
H-2A R/B                
1 27601U 02056E   18121.36388260  .00000028  00000-0  25065-4 0  9990
2 27601  98.3318 182.4538 0073350  71.9260 340.2901 14.31836181803347
